{"type":"FeatureCollection","crs":{"type":"name","properties":{"name":"EPSG:4326"}},"features":[{"type":"Feature","id":1,"geometry":{"type":"Polygon","coordinates":[[[-63.6724228218289,44.6858555629672],[-63.6723879680941,44.6858314611706],[-63.6723583362662,44.6858038881459],[-63.672331720981,44.6857682364585],[-63.6723137250309,44.6857298575883],[-63.6723066876289,44.6857013673712],[-63.6723055422769,44.6856666193531],[-63.6723108261675,44.6856321874609],[-63.6723209394009,44.6856041806772],[-63.6723358298751,44.6855772896557],[-63.6726462930271,44.6851342163827],[-63.6729894746185,44.6846432289465],[-63.6730072280235,44.6846102379733],[-63.6730179745692,44.6845819656383],[-63.673027256861,44.6845413531132],[-63.6730298601787,44.6845002423791],[-63.6730275012028,44.6844709761837],[-63.6730197963526,44.6844361808029],[-63.6730075415355,44.6844019832188],[-63.6729933005433,44.6843744305906],[-63.6729365476786,44.6842848325647],[-63.6733939967707,44.6841053422963],[-63.6734417188719,44.6841115363824],[-63.6734897068744,44.6841168318208],[-63.6735377047583,44.6841214080859],[-63.6735780292331,44.684124488522],[-63.673618234232,44.6841270279815],[-63.6743696255598,44.6841682584167],[-63.6744175219341,44.6841711229709],[-63.6744814137104,44.6841758129196],[-63.6745451671461,44.6841813114577],[-63.6746087831396,44.6841876192236],[-63.6746563902563,44.6841930015178],[-63.6747038671174,44.6841987433975],[-63.674766947715,44.6842072073999],[-63.6748298917686,44.684216389934],[-63.6748925717176,44.6842264711119],[-63.6749393847237,44.6842345467831],[-63.6749782638092,44.6842416676029],[-63.675017012639,44.6842490566741],[-63.675055631213,44.6842568046913],[-63.6751095876222,44.6842681734723],[-63.67515548794,44.684278404096],[-63.6752013810712,44.6842890843593],[-63.6752468888252,44.6843002123459],[-63.67528472317,44.6843098445066],[-63.6753224263608,44.6843198368897],[-63.6753672873278,44.684332129211],[-63.6754268393429,44.6843492979633],[-63.675471181982,44.6843625777],[-63.6755081063334,44.6843740927213],[-63.6755592150832,44.6843906617273],[-63.6756100624232,44.6844077672316],[-63.6756603977235,44.684425499928],[-63.6757246506226,44.6844491820494],[-63.6763954190519,44.6847052879986],[-63.676422854499,44.6851905823067],[-63.6764645893288,44.6859310374133],[-63.6765882981232,44.6859878177018],[-63.676577142844,44.6860272470233],[-63.6765650236725,44.6860723400936],[-63.6765550011689,44.6861118677136],[-63.6765453559577,44.6861514872758],[-63.676536467128,44.6861912032507],[-63.6765302624643,44.6862195980644],[-63.6765234703024,44.6862537492297],[-63.6765157160449,44.6862935634902],[-63.6765087172705,44.6863333828327],[-63.6765012585587,44.6863790485536],[-63.6764952667958,44.6864190556069],[-63.6764913294799,44.6864476463811],[-63.676487058889,44.6864819053473],[-63.6764824541249,44.6865220126008],[-63.6764796513812,44.6865506129042],[-63.6764763887001,44.6865850589399],[-63.6764728358631,44.6866309326687],[-63.6764699145418,44.6866768108319],[-63.6764679571128,44.6867170265241],[-63.676466920457,44.6867456388659],[-63.6764661344311,44.6867744332139],[-63.6764655199835,44.6868088989152],[-63.676465410389,44.6868433677893],[-63.6764655532211,44.6868777485068],[-63.6764660284299,44.6869065517305],[-63.6764668845244,44.6869351780294],[-63.676468459271,44.6869754190888],[-63.6764701166628,44.6870098105853],[-63.6764718540045,44.6870385326329],[-63.6764748175466,44.6870786931488],[-63.6764787090485,44.6871245319988],[-63.6764828089594,44.6871646113448],[-63.6764874119269,44.6872046938564],[-63.6764925215443,44.6872447801722],[-63.6764964076562,44.6872732485543],[-63.676500795028,44.6873018989411],[-63.676506239717,44.6873361382423],[-63.6765110088728,44.6873646123274],[-63.6765162819835,44.6873930902305],[-63.6765239176634,44.6874329254224],[-63.6765308787086,44.6874669954012],[-63.6765370357615,44.6874953889508],[-63.6750218096426,44.6867902178881],[-63.6748217539305,44.687117003427],[-63.674579280669,44.6869661290575],[-63.6731265925652,44.6860622381606],[-63.672948307524,44.6856565882428],[-63.6724228218289,44.6858555629672]]]},"properties":{"GLOBALID":"2b0963e5-afbd-457b-8212-c33f168c276d","OBJECTID":1,"SOURCE":"SCHED_COV","SACC":"IN","SDATE":"Thu, 10 Oct 2002 00:00:00 GMT","SCHED_NAME":"L","BYLAW_ID":9}},{"type":"Feature","id":2,"geometry":{"type":"Polygon","coordinates":[[[-63.6534823228652,44.6615382204998],[-63.654739434257,44.6609819775952],[-63.6556775925189,44.660566731308],[-63.6563001043496,44.6602912540314],[-63.6565377815057,44.6605534588967],[-63.6567900589802,44.6608524893181],[-63.6569502824943,44.6610472541913],[-63.6570231951527,44.6611324781137],[-63.6570959209614,44.6612218416651],[-63.6572324891391,44.661413281493],[-63.6572974579954,44.6615332756961],[-63.6573667666129,44.6616670727733],[-63.6574111460829,44.661772156068],[-63.6574570535871,44.6618761702218],[-63.6575171050656,44.6620310483573],[-63.6576129175771,44.6622765454365],[-63.6578950505601,44.6622301150775],[-63.6581726578307,44.6628624076526],[-63.6593204541338,44.6637966412312],[-63.6591399322876,44.664202281913],[-63.6595464118688,44.6649069733506],[-63.6595675905499,44.6655358479944],[-63.6594580679505,44.6655399031052],[-63.6593584259209,44.6655582510884],[-63.6592859740983,44.6655713984071],[-63.6592140891126,44.6655890506168],[-63.6591367100307,44.6656115207749],[-63.6590943625498,44.6656271393506],[-63.6590579673061,44.6656410910298],[-63.6589817650172,44.6656781504608],[-63.6589142494371,44.6657161733293],[-63.6588690453136,44.6657549002403],[-63.6588301320922,44.6657860229472],[-63.6587886559772,44.6658198270959],[-63.6587258475692,44.6658724640327],[-63.6585786756778,44.6660031377514],[-63.6584796292312,44.6660849369344],[-63.6582329725155,44.6659180685743],[-63.6579596816498,44.6657446126783],[-63.6576776223287,44.6655584018693],[-63.6574219303578,44.6653977638586],[-63.6570871228615,44.6651793938925],[-63.6567961172185,44.6649931148214],[-63.6565845702573,44.6648582699417],[-63.6564435913516,44.6647620130401],[-63.6563554324862,44.6647105142735],[-63.6562937864982,44.6646656007231],[-63.6562146377351,44.6646015696076],[-63.6561090335869,44.6645182624131],[-63.6559946016945,44.6644348912074],[-63.6559088628905,44.664364420853],[-63.6558298416882,44.6643002999566],[-63.655733249439,44.6642043705316],[-63.6556366913257,44.6641147400375],[-63.6554699388562,44.6639611440294],[-63.6553124740683,44.6637758468993],[-63.6551811906794,44.6636288130109],[-63.6546147031798,44.6629707089894],[-63.653829317805,44.6620696109667],[-63.653402902811,44.6615712016077],[-63.6534823228652,44.6615382204998]]]},"properties":{"GLOBALID":"5d0ddf46-3336-4d16-9502-a3d49b039300","OBJECTID":2,"SOURCE":"SCHED_COV","SACC":"IN","SDATE":"Thu, 10 Oct 2002 00:00:00 GMT","SCHED_NAME":"L","BYLAW_ID":9}},{"type":"Feature","id":3,"geometry":{"type":"Polygon","coordinates":[[[-63.7636919008338,44.6662344792813],[-63.7633220581431,44.666159526071],[-63.7631568301146,44.6665747393279],[-63.7627673125225,44.6665484425871],[-63.7632368682098,44.6653683365942],[-63.763251556563,44.6653729194512],[-63.7632662538994,44.6653775029468],[-63.7632809440492,44.6653819963566],[-63.7632956324024,44.6653864897661],[-63.763310450113,44.6653908937287],[-63.7633251402629,44.6653953877764],[-63.7633400846359,44.6653997866272],[-63.7633549014482,44.6654041005034],[-63.7633697200571,44.665408409907],[-63.7633846590403,44.6654126343361],[-63.7633994695644,44.6654168523759],[-63.7634144166324,44.6654210780822],[-63.7634292307498,44.6654252073138],[-63.7634441688346,44.6654293429341],[-63.7634592344803,44.6654333827187],[-63.7634742929394,44.665437422503],[-63.7634892328209,44.6654414616482],[-63.7635042993648,44.6654455027097],[-63.7635192338564,44.6654493616836],[-63.7635342941121,44.6654532212962],[-63.7635493543679,44.6654570815474],[-63.7635645430827,44.6654608529909],[-63.7635797371874,44.6654647138805],[-63.7635947902566,44.6654684840457],[-63.7636099807681,44.6654721647642],[-63.7636251631947,44.6654757496472],[-63.7636403528078,44.665479431643],[-63.7636555361328,44.6654829321904],[-63.7636708506118,44.6654866084357],[-63.7636860339367,44.6654901089826],[-63.7637013376359,44.6654935149717],[-63.7637166476232,44.6654969273497],[-63.7637318309482,44.6655004291737],[-63.7637471346474,44.665503745077],[-63.7637625721955,44.6655070622579],[-63.7637778776913,44.6655102938257],[-63.7637931813905,44.6655136097284],[-63.7638087464994,44.6655168374624],[-63.7638240448087,44.6655199731943],[-63.7638394796619,44.6655230258688],[-63.7638549118202,44.6655261628782],[-63.7638703367919,44.6655292091634],[-63.7638857707468,44.6655322560872],[-63.7639013259743,44.6655351241184],[-63.7639167500477,44.665538171042],[-63.7639321786127,44.6655410377951],[-63.7639477320436,44.6655439051868],[-63.7639632881693,44.6655466831323],[-63.7639787149377,44.6655495498849],[-63.7639943896411,44.6655522339115],[-63.7640099466652,44.6655549217713],[-63.7640256213686,44.6655575201848],[-63.7640410436454,44.6655602067667],[-63.7640568459095,44.6655628007076],[-63.7640723975437,44.6655653083967],[-63.7640879482796,44.6655678160857],[-63.7641036175931,44.6655703180245],[-63.7641192949915,44.665572736267],[-63.7641349661016,44.6655750593132],[-63.7641506372117,44.6655773881093],[-63.7641663164067,44.6655798012404],[-63.7641819884151,44.6655820393123],[-63.7641977807978,44.6655841834656],[-63.7642134510096,44.6655864215374],[-63.7642292523755,44.6655885644128],[-63.7642449180957,44.6655906178419],[-63.7642607113767,44.6655926770211],[-63.764276510946,44.6655948205351],[-63.7642923051253,44.6655967845178],[-63.7643080993046,44.6655986584153],[-63.7643238934839,44.6656007175942],[-63.7643396831717,44.6656025014065],[-63.7643554782493,44.6656042852188],[-63.7643712661405,44.6656061584772],[-63.7643871887789,44.6656079422894],[-63.7644029784666,44.6656095459314],[-63.7644188939185,44.6656113310213],[-63.7644346836063,44.6656129397744],[-63.7644506017531,44.665614538305],[-63.7644665109168,44.6656160525007],[-63.7644823024011,44.6656175718075],[-63.7644982133615,44.665619086642],[-63.7645141315083,44.6656205043634],[-63.7645299176028,44.6656219335851],[-63.7645459561239,44.6656232637771],[-63.7645618616943,44.6656245083563],[-63.7645776468905,44.6656258411038],[-63.7645936881065,44.6656270863218],[-63.7646095945752,44.6656282408159],[-63.7646256339946,44.6656294873117],[-63.7646414155975,44.6656305498039],[-63.764657449627,44.6656316097406],[-63.7646733569941,44.6656326741496],[-63.7646893928202,44.6656336484735],[-63.7647053010856,44.6656346234363],[-63.7647213369117,44.6656355932878],[-63.7647372406855,44.6656363868027],[-63.7647532702235,44.6656371822343],[-63.7647692988631,44.665638067112],[-63.7647852026368,44.6656387718197],[-63.7648012330731,44.6656394707772],[-63.7648172635093,44.6656402662088],[-63.7648331690798,44.6656408808314],[-63.7648491941261,44.6656413996189],[-63.7648650996965,44.6656420142414],[-63.7648811256412,44.665642539418],[-63.7648971524842,44.6656429681204],[-63.7649131856154,44.6656434932968],[-63.7649292043735,44.6656438383033],[-63.7649452312165,44.6656441781985],[-63.7649612589578,44.6656445238439],[-63.7649772795126,44.6656447723762],[-63.7649934267298,44.6656449384904],[-63.7650094562677,44.6656451883007],[-63.7650253510584,44.6656453518592],[-63.7650413743081,44.6656454272496],[-63.7650573966595,44.6656455869748],[-63.7650734127227,44.6656455710022],[-63.7650894368707,44.6656455563075],[-63.7651054529339,44.6656455365016],[-63.765121477082,44.665645430444],[-63.7651374958401,44.6656452304681],[-63.7651535128017,44.6656451256884],[-63.7651695315598,44.6656449295459],[-63.7651855431314,44.6656446394849],[-63.7652015618896,44.6656444446201],[-63.765217584241,44.6656440638353],[-63.7652335967109,44.6656436888005],[-63.7652496082825,44.6656433137657],[-63.7652656225491,44.6656428428958],[-63.7652817643765,44.6656422832187],[-63.765297778643,44.6656418187378],[-63.7653136662471,44.6656412628941],[-63.7653296832087,44.665640612493],[-63.765345691187,44.6656400566493],[-63.7653617000637,44.6656393219133],[-63.7653775912611,44.6656385858995],[-63.7653936001377,44.6656378447745],[-63.7654096117094,44.6656370199535],[-63.7654254885337,44.6656361044085],[-63.7654416258695,44.6656352738374],[-63.7654576374411,44.6656343538201],[-63.7654735169604,44.66563334819],[-63.7654893955813,44.6656323412822],[-63.7655054080513,44.665631336291],[-63.7655212812824,44.6656301504908],[-63.7655374204147,44.6656291403884],[-63.7655532936458,44.6656279545882],[-63.76556917586,44.665626678703],[-63.7655850490911,44.6656254929027],[-63.7656009322036,44.6656242112673],[-63.7656107561796,44.6656233346951],[-63.76662845487,44.6659830003583],[-63.7671039169802,44.6665293078035],[-63.7652087969209,44.6662420642339],[-63.765009941358,44.6666029463385],[-63.7646823383503,44.6664783888038],[-63.7641071452773,44.6663185704873],[-63.7636919008338,44.6662344792813]]]},"properties":{"GLOBALID":"abc2f7c1-20c9-4ca4-8ca0-485ca334de5f","OBJECTID":3,"SOURCE":"CASE 17491","SACC":"IN","SDATE":"Sat, 14 Jun 2014 00:00:00 GMT","SCHED_NAME":"E","BYLAW_ID":21}},{"type":"Feature","id":4,"geometry":{"type":"Polygon","coordinates":[[[-63.6131424716137,44.6177499955522],[-63.6129781347139,44.6177019201047],[-63.6128325169081,44.6179557543089],[-63.6126422124084,44.6179000973489],[-63.612457302292,44.6178460114085],[-63.6122994898561,44.6177997859055],[-63.6124449818979,44.6175460418187],[-63.6124148757594,44.6175371677989],[-63.6124663815646,44.6175143484279],[-63.6127434399645,44.617391943294],[-63.6129027741464,44.617321542385],[-63.6130742831954,44.6172458360069],[-63.6132374208443,44.6171737538467],[-63.6133816588379,44.6171099848985],[-63.6135598926751,44.6170311801755],[-63.6133204143967,44.616845184466],[-63.6134773554668,44.6167662144084],[-63.6136336407666,44.6168879353839],[-63.6136414013124,44.6167917874978],[-63.613757699904,44.6167920598988],[-63.6136303619159,44.6166891037353],[-63.6138215800022,44.6164358938453],[-63.613916250755,44.6163963436481],[-63.6142990372706,44.6164145952768],[-63.6144840884225,44.6164234157549],[-63.6144801546999,44.616455311805],[-63.6144811473383,44.6165620231838],[-63.6144811581181,44.6165634069353],[-63.6144845851909,44.6166027172282],[-63.6145028003299,44.6168117328755],[-63.6145139942367,44.6169401230877],[-63.6146022959341,44.6175230056841],[-63.6146812722207,44.6177157637404],[-63.6147467863543,44.6178574788982],[-63.6148129832076,44.6179812610136],[-63.6151079710823,44.6184344318881],[-63.6152481082666,44.6186088867502],[-63.6151573676431,44.6186440650145],[-63.6150633841015,44.6186745767831],[-63.6149666050027,44.6187002647667],[-63.6148675316066,44.6187210068428],[-63.6147666516985,44.6187366943158],[-63.61466446564,44.6187472536567],[-63.6145670846699,44.6187524674665],[-63.6144694351036,44.6187530205625],[-63.6143719427425,44.6187489123056],[-63.6142750657273,44.6187401574013],[-63.6142586202694,44.6187382007836],[-63.6141629730478,44.6187240568655],[-63.6140688610471,44.6187053717979],[-63.6139767145602,44.6186822357346],[-63.6138875873109,44.6186553827226],[-63.6139152545234,44.618590028363],[-63.6140313474008,44.618315816631],[-63.6139467359825,44.6181926727342],[-63.6140448499778,44.6180303676228],[-63.6140213958641,44.6180294155184],[-63.6138379194589,44.618021759678],[-63.6136170533749,44.6180125142247],[-63.6132652129225,44.617997903349],[-63.6132777228612,44.6178794732735],[-63.6132868623209,44.6177922457713],[-63.6131424716137,44.6177499955522]]]},"properties":{"GLOBALID":"e288d79b-6dd7-4026-bbd5-e81ef3ebc5d1","OBJECTID":4,"SOURCE":"CASE 16367","SACC":"IN","SDATE":"Sat, 26 Jul 2014 00:00:00 GMT","SCHED_NAME":"S","BYLAW_ID":9}},{"type":"Feature","id":5,"geometry":{"type":"Polygon","coordinates":[[[-63.6065230396099,44.599801081757],[-63.6070320672707,44.5993903508209],[-63.6072822660437,44.5995776132484],[-63.6067758623618,44.5999898063204],[-63.6065230396099,44.599801081757]]]},"properties":{"GLOBALID":"b02de92a-33b4-4dda-8702-5ffbbd26a29e","OBJECTID":5,"SOURCE":"SCHED_COV","SACC":"IN","SDATE":"Thu, 10 Oct 2002 00:00:00 GMT","SCHED_NAME":"L","BYLAW_ID":9}},{"type":"Feature","id":6,"geometry":{"type":"MultiPolygon","coordinates":[[[[-63.6603720588363,44.6987663095804],[-63.6604343174754,44.6983899988738],[-63.660526696626,44.6974032376931],[-63.6605408873125,44.6970979707174],[-63.6605468224816,44.6970278561648],[-63.6605668980316,44.6968700160566],[-63.6605941969347,44.6964655337694],[-63.6605943622247,44.6964635274107],[-63.6609006473124,44.6966274451568],[-63.6609250626235,44.696628569021],[-63.6609519204539,44.696629846778],[-63.6619783669386,44.696665361514],[-63.6620369640446,44.6967583094205],[-63.6620381992281,44.6967602084913],[-63.6621249387553,44.6968966508827],[-63.6621878414864,44.6969973709117],[-63.6622811054775,44.6971452019859],[-63.6634785408866,44.6968903617418],[-63.6649227560807,44.6965836687127],[-63.6644222480421,44.6968185113396],[-63.6644197085048,44.6968196626581],[-63.6638297659931,44.6971051474258],[-63.6638253184341,44.6971072744489],[-63.6637851673341,44.6971266909551],[-63.6634806366562,44.6972716118172],[-63.6633369457366,44.6973399496247],[-63.6633041689068,44.6973554600353],[-63.6629185769526,44.6975390253335],[-63.6621978559052,44.697897520415],[-63.662198909629,44.697903287755],[-63.6621957475592,44.6979048509136],[-63.662199259972,44.6979051855112],[-63.662360084459,44.6987686977036],[-63.6624718438635,44.6987537949191],[-63.6627863835703,44.6987121802506],[-63.6630890780919,44.6990381227078],[-63.663077804235,44.69904118958],[-63.6630627287079,44.6990453100307],[-63.6630477843349,44.699049250415],[-63.6630327132993,44.6990530994889],[-63.6630206983324,44.6990561056997],[-63.6630175156014,44.699056947924],[-63.6630024454641,44.6990607076028],[-63.6629872513594,44.6990643759713],[-63.662972058153,44.6990679555835],[-63.6629567382842,44.6990715332799],[-63.6629415477727,44.6990749315486],[-63.6629262305988,44.6990783291785],[-63.6629109143232,44.6990816367752],[-63.662880033837,44.6990880706249],[-63.6628491578424,44.6990941449803],[-63.6628337211925,44.6990970911669],[-63.6628181596769,44.6990999473205],[-63.6628080383586,44.6991017626668],[-63.6628025990595,44.6991027128023],[-63.6627870402388,44.6991053888896],[-63.6627714823164,44.6991079749437],[-63.6627557986299,44.6991105603592],[-63.6627401158416,44.6991130557415],[-63.6627245615125,44.6991154610908],[-63.6627087547567,44.69911777513],[-63.6626773981634,44.6991222250576],[-63.6626457936351,44.699126313576],[-63.6626336735653,44.6991278173181],[-63.6626299913709,44.6991282681214],[-63.6626141918017,44.6991301326338],[-63.6625983904359,44.6991320865405],[-63.6625825962566,44.699133590921],[-63.6625666727198,44.6991352740902],[-63.6625396298365,44.699383246655],[-63.6625162152486,44.7001869873293],[-63.6625079606295,44.7004800525674],[-63.6628023538195,44.7018570269084],[-63.6626886055449,44.7019133414409],[-63.6617038211265,44.7023866219359],[-63.6609090339839,44.7015109427092],[-63.6609090097294,44.7015108597035],[-63.6607568387136,44.7009730281705],[-63.6607162752869,44.7008808960246],[-63.660649828702,44.7007317482945],[-63.6606052309414,44.7005398017403],[-63.6605538571886,44.7003180964016],[-63.6604691604303,44.6999522726595],[-63.6603530037725,44.6994508751198],[-63.6603218187574,44.6993172782881],[-63.6603244921437,44.6992867559285],[-63.6603305126527,44.6992191215253],[-63.6603672842906,44.6987954108347],[-63.6603720588363,44.6987663095804]]],[[[-63.6637269017065,44.7066743877166],[-63.6637331782354,44.706340626989],[-63.6635640685865,44.7060579407771],[-63.6636272992028,44.7059795205463],[-63.6634475301447,44.7055207720705],[-63.6634473334137,44.7055202670477],[-63.6634474582795,44.7055204445399],[-63.6637896948432,44.7060066638619],[-63.6637952976356,44.7060329184347],[-63.6639402336202,44.7062879272132],[-63.6640662421017,44.7064231213263],[-63.6640663463063,44.7064231526104],[-63.6643540362676,44.7062860016399],[-63.6643540129114,44.7062859684403],[-63.6644021428477,44.7062668729552],[-63.6643874050871,44.706247693188],[-63.6648081283555,44.7060477261312],[-63.6652026630384,44.7064699861786],[-63.6653798171006,44.706385949409],[-63.6657736708605,44.7066054741915],[-63.6654438076916,44.7067587311607],[-63.6656955668382,44.7069824159142],[-63.6652737233706,44.7071841028994],[-63.6652044129566,44.7072164668327],[-63.6648841482864,44.7073707462431],[-63.6641790956542,44.7077002056264],[-63.6641756290555,44.7076951843184],[-63.6640656141793,44.7075025413303],[-63.6639531549872,44.707305859559],[-63.6639411481051,44.7071612581347],[-63.6638319021868,44.7070026392952],[-63.6638150749449,44.7068339395877],[-63.6637269017065,44.7066743877166]]]]},"properties":{"GLOBALID":"dd2441ce-a474-4228-a810-4bce0d1540df","OBJECTID":6,"SOURCE":"CASE 01251","SACC":"IN","SDATE":"Sat, 12 Mar 2011 00:00:00 GMT","SCHED_NAME":"R","BYLAW_ID":9}}]}